[{"OBJECT_NAME":"OBJECT J","OBJECT_ID":"2024-092J","EPOCH":"2026-03-09T22:08:58.299072","MEAN_MOTION":14.31802287,"ECCENTRICITY":0.00130036,"INCLINATION":98.6556,"RA_OF_ASC_NODE":188.1438,"ARG_OF_PERICENTER":138.752,"MEAN_ANOMALY":221.4648,"EPHEMERIS_TYPE":0,"CLASSIFICATION_TYPE":"U","NORAD_CAT_ID":59781,"ELEMENT_SET_NO":999,"REV_AT_EPOCH":9469,"BSTAR":0.00013473254,"MEAN_MOTION_DOT":3.16e-6,"MEAN_MOTION_DDOT":0},{"OBJECT_NAME":"COSMOS 1275 DEB","OBJECT_ID":"1981-053LK","EPOCH":"2026-03-09T22:17:13.135200","MEAN_MOTION":14.34493098,"ECCENTRICITY":0.00258428,"INCLINATION":82.9082,"RA_OF_ASC_NODE":63.6682,"ARG_OF_PERICENTER":117.5517,"MEAN_ANOMALY":242.8302,"EPHEMERIS_TYPE":0,"CLASSIFICATION_TYPE":"U","NORAD_CAT_ID":17640,"ELEMENT_SET_NO":999,"REV_AT_EPOCH":79694,"BSTAR":0.0020460146,"MEAN_MOTION_DOT":5.806e-5,"MEAN_MOTION_DDOT":0}]
